{"type": "FeatureCollection", "features": [ {"type": "Feature", "properties": {"norad_id": 30742, "name": "FENGYUN 1C DEB", "group": "fengyun-1c-debris", "lat": -56.77217615688196, "lon": 53.26744883479094, "alt_km": 872.7193899412823, "timestamp": "2025-12-21T03:56:51.114445+00:00", "meta": {"OBJECT_NAME": "FENGYUN 1C DEB", "OBJECT_ID": "1999-025ATC", "EPOCH": "2025-12-20T02:59:40.043328", "MEAN_MOTION": 14.10405313, "ECCENTRICITY": 0.00715028, "INCLINATION": 98.8673, "RA_OF_ASC_NODE": 38.4555, "ARG_OF_PERICENTER": 206.1715, "MEAN_ANOMALY": 219.0734, "EPHEMERIS_TYPE": 0, "CLASSIFICATION_TYPE": "U", "NORAD_CAT_ID": 30742, "ELEMENT_SET_NO": 999, "REV_AT_EPOCH": 96146, "BSTAR": 0.0010701244, "MEAN_MOTION_DOT": 1.904e-05, "MEAN_MOTION_DDOT": 0}, "tle": {"line1": "1 30742U 99025ATC 25354.12476902  .00001904  00000+0  10701-2 0  9995", "line2": "2 30742  98.8673  38.4555 0071502 206.1715 219.0734 14.10405313961460"}}, "geometry": {"type": "Point", "coordinates": [53.26744883479094, -56.77217615688196]}}, {"type": "Feature", "properties": {"norad_id": 30744, "name": "FENGYUN 1C DEB", "group": "fengyun-1c-debris", "lat": -43.080142944692525, "lon": 150.40985683828615, "alt_km": 600.6653822312828, "timestamp": "2025-12-21T03:56:51.114454+00:00", "meta": {"OBJECT_NAME": "FENGYUN 1C DEB", "OBJECT_ID": "1999-025ATE", "EPOCH": "2025-12-20T09:02:51.777888", "MEAN_MOTION": 14.90112881, "ECCENTRICITY": 0.00103606, "INCLINATION": 98.7312, "RA_OF_ASC_NODE": 141.2778, "ARG_OF_PERICENTER": 257.0283, "MEAN_ANOMALY": 157.2868, "EPHEMERIS_TYPE": 0, "CLASSIFICATION_TYPE": "U", "NORAD_CAT_ID": 30744, "ELEMENT_SET_NO": 999, "REV_AT_EPOCH": 98202, "BSTAR": 0.0032340744, "MEAN_MOTION_DOT": 0.0003137, "MEAN_MOTION_DDOT": 0}, "tle": {"line1": "1 30744U 99025ATE 25354.37698817  .00031370  00000+0  32341-2 0  9999", "line2": "2 30744  98.7312 141.2778 0010360 257.0283 157.2868 14.90112881982020"}}, "geometry": {"type": "Point", "coordinates": [150.40985683828615, -43.080142944692525]}}, {"type": "Feature", "properties": {"norad_id": 30746, "name": "FENGYUN 1C DEB", "group": "fengyun-1c-debris", "lat": 73.74405515802135, "lon": 142.89709006212203, "alt_km": 819.1569864910552, "timestamp": "2025-12-21T03:56:51.114463+00:00", "meta": {"OBJECT_NAME": "FENGYUN 1C DEB", "OBJECT_ID": "1999-025ATG", "EPOCH": "2025-12-20T10:54:29.854944", "MEAN_MOTION": 14.2753118, "ECCENTRICITY": 0.00460616, "INCLINATION": 99.0573, "RA_OF_ASC_NODE": 175.3266, "ARG_OF_PERICENTER": 295.7974, "MEAN_ANOMALY": 93.7956, "EPHEMERIS_TYPE": 0, "CLASSIFICATION_TYPE": "U", "NORAD_CAT_ID": 30746, "ELEMENT_SET_NO": 999, "REV_AT_EPOCH": 97556, "BSTAR": 0.00033616094, "MEAN_MOTION_DOT": 7.88e-06, "MEAN_MOTION_DDOT": 0}, "tle": {"line1": "1 30746U 99025ATG 25354.45451221  .00000788  00000+0  33616-3 0  9992", "line2": "2 30746  99.0573 175.3266 0046061 295.7974  93.7956 14.27531180975568"}}, "geometry": {"type": "Point", "coordinates": [142.89709006212203, 73.74405515802135]}}, {"type": "Feature", "properties": {"norad_id": 30749, "name": "FENGYUN 1C DEB", "group": "fengyun-1c-debris", "lat": -44.06775082546608, "lon": 30.437013442504895, "alt_km": 912.2383805116224, "timestamp": "2025-12-21T03:56:51.114472+00:00", "meta": {"OBJECT_NAME": "FENGYUN 1C DEB", "OBJECT_ID": "1999-025ATK", "EPOCH": "2025-12-20T19:35:06.576576", "MEAN_MOTION": 13.9983861, "ECCENTRICITY": 0.0056038, "INCLINATION": 98.8861, "RA_OF_ASC_NODE": 21.3886, "ARG_OF_PERICENTER": 209.9625, "MEAN_ANOMALY": 149.8329, "EPHEMERIS_TYPE": 0, "CLASSIFICATION_TYPE": "U", "NORAD_CAT_ID": 30749, "ELEMENT_SET_NO": 999, "REV_AT_EPOCH": 96079, "BSTAR": -2.4359e-05, "MEAN_MOTION_DOT": -7.9e-07, "MEAN_MOTION_DDOT": 0}, "tle": {"line1": "1 30749U 99025ATK 25354.81604834 -.00000079  00000+0 -24359-4 0  9995", "line2": "2 30749  98.8861  21.3886 0056038 209.9625 149.8329 13.99838610960793"}}, "geometry": {"type": "Point", "coordinates": [30.437013442504895, -44.06775082546608]}}, {"type": "Feature", "properties": {"norad_id": 30750, "name": "FENGYUN 1C DEB", "group": "fengyun-1c-debris", "lat": 14.281486198596246, "lon": 67.60780090054222, "alt_km": 783.2001131791703, "timestamp": "2025-12-21T03:56:51.114481+00:00", "meta": {"OBJECT_NAME": "FENGYUN 1C DEB", "OBJECT_ID": "1999-025ATL", "EPOCH": "2025-12-20T18:23:37.139712", "MEAN_MOTION": 14.28666163, "ECCENTRICITY": 0.0039794, "INCLINATION": 98.9197, "RA_OF_ASC_NODE": 69.4921, "ARG_OF_PERICENTER": 76.8595, "MEAN_ANOMALY": 51.8692, "EPHEMERIS_TYPE": 0, "CLASSIFICATION_TYPE": "U", "NORAD_CAT_ID": 30750, "ELEMENT_SET_NO": 999, "REV_AT_EPOCH": 96896, "BSTAR": 0.001073, "MEAN_MOTION_DOT": 2.674e-05, "MEAN_MOTION_DDOT": 0}, "tle": {"line1": "1 30750U 99025ATL 25354.76640208  .00002674  00000+0  10730-2 0  9993", "line2": "2 30750  98.9197  69.4921 0039794  76.8595  51.8692 14.28666163968965"}}, "geometry": {"type": "Point", "coordinates": [67.60780090054222, 14.281486198596246]}}, {"type": "Feature", "properties": {"norad_id": 30751, "name": "FENGYUN 1C DEB", "group": "fengyun-1c-debris", "lat": 59.82077318788315, "lon": 38.757407292418094, "alt_km": 799.1091382860168, "timestamp": "2025-12-21T03:56:51.114490+00:00", "meta": {"OBJECT_NAME": "FENGYUN 1C DEB", "OBJECT_ID": "1999-025ATM", "EPOCH": "2025-12-20T16:22:40.946304", "MEAN_MOTION": 14.15241412, "ECCENTRICITY": 0.0051633, "INCLINATION": 98.8543, "RA_OF_ASC_NODE": 53.8271, "ARG_OF_PERICENTER": 74.0136, "MEAN_ANOMALY": 52.5159, "EPHEMERIS_TYPE": 0, "CLASSIFICATION_TYPE": "U", "NORAD_CAT_ID": 30751, "ELEMENT_SET_NO": 999, "REV_AT_EPOCH": 96388, "BSTAR": 0.0010221, "MEAN_MOTION_DOT": 1.969e-05, "MEAN_MOTION_DDOT": 0}, "tle": {"line1": "1 30751U 99025ATM 25354.68241836  .00001969  00000+0  10221-2 0  9990", "line2": "2 30751  98.8543  53.8271 0051633  74.0136  52.5159 14.15241412963886"}}, "geometry": {"type": "Point", "coordinates": [38.757407292418094, 59.82077318788315]}}, {"type": "Feature", "properties": {"norad_id": 30753, "name": "FENGYUN 1C DEB", "group": "fengyun-1c-debris", "lat": 34.71213606582822, "lon": -140.2205665859112, "alt_km": 887.5629859384344, "timestamp": "2025-12-21T03:56:51.114499+00:00", "meta": {"OBJECT_NAME": "FENGYUN 1C DEB", "OBJECT_ID": "1999-025ATP", "EPOCH": "2025-12-20T15:21:52.936128", "MEAN_MOTION": 14.12676129, "ECCENTRICITY": 0.0055202, "INCLINATION": 98.8065, "RA_OF_ASC_NODE": 33.0991, "ARG_OF_PERICENTER": 332.2573, "MEAN_ANOMALY": 27.5657, "EPHEMERIS_TYPE": 0, "CLASSIFICATION_TYPE": "U", "NORAD_CAT_ID": 30753, "ELEMENT_SET_NO": 999, "REV_AT_EPOCH": 96463, "BSTAR": 0.0008079, "MEAN_MOTION_DOT": 1.475e-05, "MEAN_MOTION_DDOT": 0}, "tle": {"line1": "1 30753U 99025ATP 25354.64019602  .00001475  00000+0  80790-3 0  9993", "line2": "2 30753  98.8065  33.0991 0055202 332.2573  27.5657 14.12676129964639"}}, "geometry": {"type": "Point", "coordinates": [-140.2205665859112, 34.71213606582822]}}, {"type": "Feature", "properties": {"norad_id": 30755, "name": "FENGYUN 1C DEB", "group": "fengyun-1c-debris", "lat": 17.191552104099003, "lon": 172.07377810724446, "alt_km": 723.8096157017371, "timestamp": "2025-12-21T03:56:51.114508+00:00", "meta": {"OBJECT_NAME": "FENGYUN 1C DEB", "OBJECT_ID": "1999-025ATR", "EPOCH": "2025-12-19T23:03:47.003616", "MEAN_MOTION": 14.44983801, "ECCENTRICITY": 0.01508302, "INCLINATION": 98.2582, "RA_OF_ASC_NODE": 348.3279, "ARG_OF_PERICENTER": 246.9728, "MEAN_ANOMALY": 140.2536, "EPHEMERIS_TYPE": 0, "CLASSIFICATION_TYPE": "U", "NORAD_CAT_ID": 30755, "ELEMENT_SET_NO": 999, "REV_AT_EPOCH": 98549, "BSTAR": 0.00036855233, "MEAN_MOTION_DOT": 1.428e-05, "MEAN_MOTION_DDOT": 0}, "tle": {"line1": "1 30755U 99025ATR 25353.96096069  .00001428  00000+0  36855-3 0  9992", "line2": "2 30755  98.2582 348.3279 0150830 246.9728 140.2536 14.44983801985495"}}, "geometry": {"type": "Point", "coordinates": [172.07377810724446, 17.191552104099003]}}, {"type": "Feature", "properties": {"norad_id": 30756, "name": "FENGYUN 1C DEB", "group": "fengyun-1c-debris", "lat": 48.88544050476676, "lon": 52.23027273358426, "alt_km": 850.5475667200344, "timestamp": "2025-12-21T03:56:51.114517+00:00", "meta": {"OBJECT_NAME": "FENGYUN 1C DEB", "OBJECT_ID": "1999-025ATS", "EPOCH": "2025-12-20T16:36:00.065088", "MEAN_MOTION": 14.1831856, "ECCENTRICITY": 0.0071675, "INCLINATION": 98.9908, "RA_OF_ASC_NODE": 62.2023, "ARG_OF_PERICENTER": 293.1254, "MEAN_ANOMALY": 223.1143, "EPHEMERIS_TYPE": 0, "CLASSIFICATION_TYPE": "U", "NORAD_CAT_ID": 30756, "ELEMENT_SET_NO": 999, "REV_AT_EPOCH": 96517, "BSTAR": 0.00097165, "MEAN_MOTION_DOT": 2.007e-05, "MEAN_MOTION_DDOT": 0}, "tle": {"line1": "1 30756U 99025ATS 25354.69166742  .00002007  00000+0  97165-3 0  9995", "line2": "2 30756  98.9908  62.2023 0071675 293.1254 223.1143 14.18318560965174"}}, "geometry": {"type": "Point", "coordinates": [52.23027273358426, 48.88544050476676]}}, {"type": "Feature", "properties": {"norad_id": 30758, "name": "FENGYUN 1C DEB", "group": "fengyun-1c-debris", "lat": 46.098624638597144, "lon": 104.47972224028615, "alt_km": 820.661733401852, "timestamp": "2025-12-21T03:56:51.114559+00:00", "meta": {"OBJECT_NAME": "FENGYUN 1C DEB", "OBJECT_ID": "1999-025ATU", "EPOCH": "2025-12-20T14:44:37.343904", "MEAN_MOTION": 14.17138369, "ECCENTRICITY": 0.0038398, "INCLINATION": 99.0187, "RA_OF_ASC_NODE": 113.4209, "ARG_OF_PERICENTER": 340.127, "MEAN_ANOMALY": 141.203, "EPHEMERIS_TYPE": 0, "CLASSIFICATION_TYPE": "U", "NORAD_CAT_ID": 30758, "ELEMENT_SET_NO": 999, "REV_AT_EPOCH": 96602, "BSTAR": 0.00066359, "MEAN_MOTION_DOT": 1.301e-05, "MEAN_MOTION_DDOT": 0}, "tle": {"line1": "1 30758U 99025ATU 25354.61432111  .00001301  00000+0  66359-3 0  9992", "line2": "2 30758  99.0187 113.4209 0038398 340.1270 141.2030 14.17138369966024"}}, "geometry": {"type": "Point", "coordinates": [104.47972224028615, 46.098624638597144]}}]}